QIANFAN-41              
1 62242U 24232F   25258.84744081  .00000074  00000+0  95773-4 0  9992
2 62242  88.9969  50.0574 0015857  86.7208 273.5757 13.50969829 87389
QIANFAN-42              
1 62243U 24232G   25258.82106883  .00000291  00000+0  11977-3 0  9997
2 62243  88.9970  47.3881 0015472  20.5285 339.6526 14.24349277 88858
QIANFAN-43              
1 62244U 24232H   25258.84335535  .00000080  00000+0  10532-3 0  9990
2 62244  88.9974  50.1192 0017400  91.3242 268.9902 13.50967189 55999
QIANFAN-44              
1 62245U 24232J   25258.83100211  .00000102  00000+0  13857-3 0  9999
2 62245  88.9972  49.9326 0015603  88.7957 271.4982 13.50972620 87469
QIANFAN-45              
1 62246U 24232K   25258.87214210  .00000075  00000+0  97879-4 0  9995
2 62246  88.9976  50.0719 0016244  88.3486 271.9526 13.50969320 87392
QIANFAN-46              
1 62247U 24232L   25258.82274934  .00000088  00000+0  11744-3 0  9990
2 62247  88.9971  50.1495 0016341  93.3491 266.9530 13.50969972 87347
QIANFAN-47              
1 62248U 24232M   25258.82688373  .00000084  00000+0  11074-3 0  9999
2 62248  88.9967  50.0855 0016763  92.5628 267.7443 13.50963486 87372
QIANFAN-48              
1 62249U 24232N   25258.86392426  .00000096  00000+0  12944-3 0  9995
2 62249  88.9972  50.0802 0019021  94.7820 265.5503 13.50967139 87382
